[{"OBJECT_NAME":"STARLINK-5799","OBJECT_ID":"2023-042S","EPOCH":"2026-03-09T00:39:41.630688","MEAN_MOTION":15.02544158,"ECCENTRICITY":0.00014327,"INCLINATION":43.0042,"RA_OF_ASC_NODE":59.4584,"ARG_OF_PERICENTER":255.7667,"MEAN_ANOMALY":104.3017,"EPHEMERIS_TYPE":0,"CLASSIFICATION_TYPE":"U","NORAD_CAT_ID":56002,"ELEMENT_SET_NO":999,"REV_AT_EPOCH":16281,"BSTAR":0.00011105933,"MEAN_MOTION_DOT":1.297e-5,"MEAN_MOTION_DDOT":0},{"OBJECT_NAME":"ARIANE 6 R\/B","OBJECT_ID":"2024-128E","EPOCH":"2026-03-09T18:39:06.277536","MEAN_MOTION":15.00137067,"ECCENTRICITY":0.00536237,"INCLINATION":62.0121,"RA_OF_ASC_NODE":216.5937,"ARG_OF_PERICENTER":115.5687,"MEAN_ANOMALY":245.096,"EPHEMERIS_TYPE":0,"CLASSIFICATION_TYPE":"U","NORAD_CAT_ID":60239,"ELEMENT_SET_NO":999,"REV_AT_EPOCH":9111,"BSTAR":0.00020908474,"MEAN_MOTION_DOT":2.489e-5,"MEAN_MOTION_DDOT":0}]
